GLOBALSTAR M024         
1 25883U 99043A   25346.01771848 -.00000103  00000+0 -13722-2 0  9999
2 25883  52.0045 339.3732 0001600  24.9021   9.0611 11.10166898134612
GLOBALSTAR M027         
1 25884U 99043B   25345.53823523 -.00000084  00000+0 -76581-3 0  9995
2 25884  52.0230  63.4605 0020950 276.6386  83.2022 11.04372261160831
GLOBALSTAR M054         
1 25885U 99043C   25345.53464424 -.00000057  00000+0  35692-3 0  9994
2 25885  52.0100 161.0061 0005982 116.0504 279.3169 11.39224769139266
GLOBALSTAR M053         
1 25886U 99043D   25345.69852441 -.00000060  00000+0  26137-3 0  9990
2 25886  51.9972 117.5559 0003633  43.7393 329.5003 11.27668944139475
GLOBALSTAR M058         
1 25907U 99049A   25345.31547213 -.00000080  00000+0  60037-4 0  9997
2 25907  51.9968 356.1924 0001743 252.0184 108.0461 11.93206720562688
GLOBALSTAR M050         
1 25908U 99049B   25346.02017042 -.00000138  00000+0 -56533-3 0  9999
2 25908  52.0012 348.7005 0009213  26.7164   3.0547 12.07461894169674
GLOBALSTAR M033         
1 25909U 99049C   25345.92935974 -.00000036  00000+0  53187-3 0  9999
2 25909  51.9889 208.5065 0013130 271.7787  88.1556 12.20294310557442
GLOBALSTAR M055         
1 25910U 99049D   25345.97907677 -.00000067  00000+0  23569-3 0  9990
2 25910  51.9999 210.4561 0007544 132.7437 227.4051 12.29437808190158
